[{"OBJECT_NAME":"XINGYUN-2 02","OBJECT_ID":"2020-028B","EPOCH":"2026-04-05T19:45:38.817216","MEAN_MOTION":15.11243343,"ECCENTRICITY":0.0011664,"INCLINATION":97.5102,"RA_OF_ASC_NODE":103.0967,"ARG_OF_PERICENTER":152.9923,"MEAN_ANOMALY":207.1916,"EPHEMERIS_TYPE":0,"CLASSIFICATION_TYPE":"U","NORAD_CAT_ID":45603,"ELEMENT_SET_NO":999,"REV_AT_EPOCH":32390,"BSTAR":0.00016405,"MEAN_MOTION_DOT":2.698e-5,"MEAN_MOTION_DDOT":0},{"OBJECT_NAME":"HAIYANG-1D","OBJECT_ID":"2020-036A","EPOCH":"2026-04-05T20:02:40.916256","MEAN_MOTION":14.34217432,"ECCENTRICITY":0.0003076,"INCLINATION":98.4511,"RA_OF_ASC_NODE":39.1069,"ARG_OF_PERICENTER":30.3539,"MEAN_ANOMALY":329.7824,"EPHEMERIS_TYPE":0,"CLASSIFICATION_TYPE":"U","NORAD_CAT_ID":45721,"ELEMENT_SET_NO":999,"REV_AT_EPOCH":30460,"BSTAR":6.2249e-5,"MEAN_MOTION_DOT":1.32e-6,"MEAN_MOTION_DDOT":0},{"OBJECT_NAME":"M2 PATHFINDER","OBJECT_ID":"2020-037E","EPOCH":"2026-04-05T11:40:25.710816","MEAN_MOTION":15.04355735,"ECCENTRICITY":0.00122847,"INCLINATION":97.8157,"RA_OF_ASC_NODE":285.9049,"ARG_OF_PERICENTER":43.182,"MEAN_ANOMALY":317.0366,"EPHEMERIS_TYPE":0,"CLASSIFICATION_TYPE":"U","NORAD_CAT_ID":45727,"ELEMENT_SET_NO":999,"REV_AT_EPOCH":31456,"BSTAR":0.00028474623,"MEAN_MOTION_DOT":3.914e-5,"MEAN_MOTION_DDOT":0},{"OBJECT_NAME":"GAOFEN DUOMO (GFDM)","OBJECT_ID":"2020-042A","EPOCH":"2026-04-05T20:19:27.141888","MEAN_MOTION":14.76894739,"ECCENTRICITY":0.0010052,"INCLINATION":97.7811,"RA_OF_ASC_NODE":158.3433,"ARG_OF_PERICENTER":310.505,"MEAN_ANOMALY":49.5284,"EPHEMERIS_TYPE":0,"CLASSIFICATION_TYPE":"U","NORAD_CAT_ID":45856,"ELEMENT_SET_NO":999,"REV_AT_EPOCH":31033,"BSTAR":0.0001406,"MEAN_MOTION_DOT":9.4e-6,"MEAN_MOTION_DDOT":0},{"OBJECT_NAME":"ZIYUAN 3-03 (ZY 3-03)","OBJECT_ID":"2020-051A","EPOCH":"2026-04-05T20:04:05.474208","MEAN_MOTION":15.21409901,"ECCENTRICITY":0.0006056,"INCLINATION":97.2881,"RA_OF_ASC_NODE":165.8784,"ARG_OF_PERICENTER":181.4277,"MEAN_ANOMALY":178.6942,"EPHEMERIS_TYPE":0,"CLASSIFICATION_TYPE":"U","NORAD_CAT_ID":45939,"ELEMENT_SET_NO":999,"REV_AT_EPOCH":31634,"BSTAR":0.00023455,"MEAN_MOTION_DOT":5.198e-5,"MEAN_MOTION_DDOT":0},{"OBJECT_NAME":"TYVAK-0172","OBJECT_ID":"2020-059C","EPOCH":"2026-04-05T14:34:14.206368","MEAN_MOTION":16.15281564,"ECCENTRICITY":0.0003712,"INCLINATION":97.7067,"RA_OF_ASC_NODE":341.4196,"ARG_OF_PERICENTER":191.4303,"MEAN_ANOMALY":168.6898,"EPHEMERIS_TYPE":0,"CLASSIFICATION_TYPE":"U","NORAD_CAT_ID":46267,"ELEMENT_SET_NO":999,"REV_AT_EPOCH":30738,"BSTAR":0.003512,"MEAN_MOTION_DOT":0.03606029,"MEAN_MOTION_DDOT":0.027629},{"OBJECT_NAME":"ION-MK01","OBJECT_ID":"2020-061C","EPOCH":"2026-04-05T03:44:21.185664","MEAN_MOTION":16.04593156,"ECCENTRICITY":0.00055203,"INCLINATION":97.1841,"RA_OF_ASC_NODE":175.7966,"ARG_OF_PERICENTER":233.5979,"MEAN_ANOMALY":126.4793,"EPHEMERIS_TYPE":0,"CLASSIFICATION_TYPE":"U","NORAD_CAT_ID":46274,"ELEMENT_SET_NO":999,"REV_AT_EPOCH":31186,"BSTAR":0.00085400015,"MEAN_MOTION_DOT":0.00564974,"MEAN_MOTION_DDOT":0.00015324028},{"OBJECT_NAME":"NEMO-HD","OBJECT_ID":"2020-061F","EPOCH":"2026-04-05T20:39:15.254208","MEAN_MOTION":15.43182651,"ECCENTRICITY":9.39e-5,"INCLINATION":97.1983,"RA_OF_ASC_NODE":158.5969,"ARG_OF_PERICENTER":76.1605,"MEAN_ANOMALY":283.9747,"EPHEMERIS_TYPE":0,"CLASSIFICATION_TYPE":"U","NORAD_CAT_ID":46277,"ELEMENT_SET_NO":999,"REV_AT_EPOCH":31082,"BSTAR":0.00029654,"MEAN_MOTION_DOT":0.0001307,"MEAN_MOTION_DDOT":0},{"OBJECT_NAME":"3CAT-5A","OBJECT_ID":"2020-061W","EPOCH":"2026-04-05T16:48:12.101184","MEAN_MOTION":15.4393199,"ECCENTRICITY":0.0002652,"INCLINATION":97.2469,"RA_OF_ASC_NODE":158.7734,"ARG_OF_PERICENTER":64.4868,"MEAN_ANOMALY":295.6655,"EPHEMERIS_TYPE":0,"CLASSIFICATION_TYPE":"U","NORAD_CAT_ID":46292,"ELEMENT_SET_NO":999,"REV_AT_EPOCH":30983,"BSTAR":0.00045379,"MEAN_MOTION_DOT":0.00020578,"MEAN_MOTION_DDOT":0},{"OBJECT_NAME":"3CAT-5B","OBJECT_ID":"2020-061X","EPOCH":"2026-04-05T17:50:53.423232","MEAN_MOTION":15.4513083,"ECCENTRICITY":0.0002758,"INCLINATION":97.2468,"RA_OF_ASC_NODE":159.6644,"ARG_OF_PERICENTER":59.8005,"MEAN_ANOMALY":300.3517,"EPHEMERIS_TYPE":0,"CLASSIFICATION_TYPE":"U","NORAD_CAT_ID":46293,"ELEMENT_SET_NO":999,"REV_AT_EPOCH":30986,"BSTAR":0.00046148,"MEAN_MOTION_DOT":0.000218,"MEAN_MOTION_DDOT":0},{"OBJECT_NAME":"NAPA-1","OBJECT_ID":"2020-061BA","EPOCH":"2026-04-05T20:22:49.603008","MEAN_MOTION":15.60071835,"ECCENTRICITY":0.0001132,"INCLINATION":97.2524,"RA_OF_ASC_NODE":168.1006,"ARG_OF_PERICENTER":149.0364,"MEAN_ANOMALY":211.096,"EPHEMERIS_TYPE":0,"CLASSIFICATION_TYPE":"U","NORAD_CAT_ID":46320,"ELEMENT_SET_NO":999,"REV_AT_EPOCH":31043,"BSTAR":0.00080722,"MEAN_MOTION_DOT":0.00065688,"MEAN_MOTION_DDOT":0},{"OBJECT_NAME":"JILIN-1 GAOFEN 3B","OBJECT_ID":"2020-065A","EPOCH":"2026-04-05T20:10:18.043968","MEAN_MOTION":15.94554102,"ECCENTRICITY":0.000295,"INCLINATION":97.2272,"RA_OF_ASC_NODE":154.9667,"ARG_OF_PERICENTER":208.1791,"MEAN_ANOMALY":151.9326,"EPHEMERIS_TYPE":0,"CLASSIFICATION_TYPE":"U","NORAD_CAT_ID":46454,"ELEMENT_SET_NO":999,"REV_AT_EPOCH":30902,"BSTAR":0.0011233,"MEAN_MOTION_DOT":0.00421661,"MEAN_MOTION_DDOT":7.2481e-5},{"OBJECT_NAME":"JILIN-1 GAOFEN 3E","OBJECT_ID":"2020-065D","EPOCH":"2026-04-05T20:31:59.225376","MEAN_MOTION":15.5652991,"ECCENTRICITY":0.0013966,"INCLINATION":97.2356,"RA_OF_ASC_NODE":147.1648,"ARG_OF_PERICENTER":76.2639,"MEAN_ANOMALY":284.017,"EPHEMERIS_TYPE":0,"CLASSIFICATION_TYPE":"U","NORAD_CAT_ID":46457,"ELEMENT_SET_NO":999,"REV_AT_EPOCH":30848,"BSTAR":0.00072816,"MEAN_MOTION_DOT":0.00052011,"MEAN_MOTION_DDOT":0},{"OBJECT_NAME":"JILIN-1 GAOFEN 3F","OBJECT_ID":"2020-065E","EPOCH":"2026-04-05T20:13:01.268256","MEAN_MOTION":15.54706083,"ECCENTRICITY":0.0015215,"INCLINATION":97.2311,"RA_OF_ASC_NODE":144.7746,"ARG_OF_PERICENTER":64.6554,"MEAN_ANOMALY":295.6274,"EPHEMERIS_TYPE":0,"CLASSIFICATION_TYPE":"U","NORAD_CAT_ID":46458,"ELEMENT_SET_NO":999,"REV_AT_EPOCH":30844,"BSTAR":0.00072626,"MEAN_MOTION_DOT":0.00048527,"MEAN_MOTION_DDOT":0},{"OBJECT_NAME":"JILIN-1 GAOFEN 3G","OBJECT_ID":"2020-065F","EPOCH":"2026-04-05T20:38:58.335360","MEAN_MOTION":15.61287938,"ECCENTRICITY":0.0009582,"INCLINATION":97.2385,"RA_OF_ASC_NODE":150.6359,"ARG_OF_PERICENTER":319.3275,"MEAN_ANOMALY":40.7266,"EPHEMERIS_TYPE":0,"CLASSIFICATION_TYPE":"U","NORAD_CAT_ID":46459,"ELEMENT_SET_NO":999,"REV_AT_EPOCH":30862,"BSTAR":0.00076264,"MEAN_MOTION_DOT":0.00065134,"MEAN_MOTION_DDOT":0},{"OBJECT_NAME":"JILIN-1 GAOFEN 3H","OBJECT_ID":"2020-065G","EPOCH":"2026-04-05T20:14:13.722432","MEAN_MOTION":15.59330625,"ECCENTRICITY":0.0006581,"INCLINATION":97.2331,"RA_OF_ASC_NODE":147.2816,"ARG_OF_PERICENTER":237.5234,"MEAN_ANOMALY":122.5387,"EPHEMERIS_TYPE":0,"CLASSIFICATION_TYPE":"U","NORAD_CAT_ID":46460,"ELEMENT_SET_NO":999,"REV_AT_EPOCH":30858,"BSTAR":0.00071905,"MEAN_MOTION_DOT":0.0005687,"MEAN_MOTION_DDOT":0},{"OBJECT_NAME":"JILIN-1 GAOFEN 3J","OBJECT_ID":"2020-065J","EPOCH":"2026-04-05T20:25:16.691232","MEAN_MOTION":15.86386753,"ECCENTRICITY":0.0001383,"INCLINATION":97.2301,"RA_OF_ASC_NODE":154.0799,"ARG_OF_PERICENTER":206.879,"MEAN_ANOMALY":153.241,"EPHEMERIS_TYPE":0,"CLASSIFICATION_TYPE":"U","NORAD_CAT_ID":46462,"ELEMENT_SET_NO":999,"REV_AT_EPOCH":30896,"BSTAR":0.0010738,"MEAN_MOTION_DOT":0.00275492,"MEAN_MOTION_DDOT":0},{"OBJECT_NAME":"HAIYANG-2C","OBJECT_ID":"2020-066A","EPOCH":"2026-04-05T20:54:12.881952","MEAN_MOTION":13.83372345,"ECCENTRICITY":0.0011679,"INCLINATION":65.9993,"RA_OF_ASC_NODE":35.3334,"ARG_OF_PERICENTER":246.4541,"MEAN_ANOMALY":113.5301,"EPHEMERIS_TYPE":0,"CLASSIFICATION_TYPE":"U","NORAD_CAT_ID":46469,"ELEMENT_SET_NO":999,"REV_AT_EPOCH":27949,"BSTAR":9.8426e-5,"MEAN_MOTION_DOT":2.7e-7,"MEAN_MOTION_DDOT":0},{"OBJECT_NAME":"HJ-2A","OBJECT_ID":"2020-067A","EPOCH":"2026-04-05T20:35:48.474816","MEAN_MOTION":14.76477746,"ECCENTRICITY":0.0004308,"INCLINATION":97.8843,"RA_OF_ASC_NODE":175.9326,"ARG_OF_PERICENTER":123.7847,"MEAN_ANOMALY":236.3774,"EPHEMERIS_TYPE":0,"CLASSIFICATION_TYPE":"U","NORAD_CAT_ID":46478,"ELEMENT_SET_NO":999,"REV_AT_EPOCH":29758,"BSTAR":0.00024825,"MEAN_MOTION_DOT":1.679e-5,"MEAN_MOTION_DDOT":0},{"OBJECT_NAME":"HJ-2B","OBJECT_ID":"2020-067B","EPOCH":"2026-04-05T19:50:37.728384","MEAN_MOTION":14.76529324,"ECCENTRICITY":0.0001683,"INCLINATION":97.8905,"RA_OF_ASC_NODE":176.8689,"ARG_OF_PERICENTER":80.2836,"MEAN_ANOMALY":279.8564,"EPHEMERIS_TYPE":0,"CLASSIFICATION_TYPE":"U","NORAD_CAT_ID":46479,"ELEMENT_SET_NO":999,"REV_AT_EPOCH":29758,"BSTAR":0.00014271,"MEAN_MOTION_DOT":9.45e-6,"MEAN_MOTION_DDOT":0},{"OBJECT_NAME":"GONETS-M 17","OBJECT_ID":"2020-068A","EPOCH":"2026-04-05T20:11:56.148576","MEAN_MOTION":12.42870054,"ECCENTRICITY":0.0021803,"INCLINATION":82.5022,"RA_OF_ASC_NODE":32.4996,"ARG_OF_PERICENTER":190.8252,"MEAN_ANOMALY":169.2361,"EPHEMERIS_TYPE":0,"CLASSIFICATION_TYPE":"U","NORAD_CAT_ID":46486,"ELEMENT_SET_NO":999,"REV_AT_EPOCH":25017,"BSTAR":-7.8251e-5,"MEAN_MOTION_DOT":-1.0e-8,"MEAN_MOTION_DDOT":0},{"OBJECT_NAME":"GONETS-M 18","OBJECT_ID":"2020-068B","EPOCH":"2026-04-05T19:19:34.394880","MEAN_MOTION":12.42869666,"ECCENTRICITY":0.001915,"INCLINATION":82.4977,"RA_OF_ASC_NODE":31.6677,"ARG_OF_PERICENTER":186.7669,"MEAN_ANOMALY":173.3155,"EPHEMERIS_TYPE":0,"CLASSIFICATION_TYPE":"U","NORAD_CAT_ID":46487,"ELEMENT_SET_NO":999,"REV_AT_EPOCH":25015,"BSTAR":0.00083512,"MEAN_MOTION_DOT":1.26e-6,"MEAN_MOTION_DDOT":0},{"OBJECT_NAME":"GONETS-M 19","OBJECT_ID":"2020-068C","EPOCH":"2026-04-05T20:41:44.642400","MEAN_MOTION":12.4288992,"ECCENTRICITY":0.0012659,"INCLINATION":82.5001,"RA_OF_ASC_NODE":32.0693,"ARG_OF_PERICENTER":201.1703,"MEAN_ANOMALY":158.8854,"EPHEMERIS_TYPE":0,"CLASSIFICATION_TYPE":"U","NORAD_CAT_ID":46488,"ELEMENT_SET_NO":999,"REV_AT_EPOCH":25026,"BSTAR":0.00067836,"MEAN_MOTION_DOT":1.04e-6,"MEAN_MOTION_DDOT":0}]
